[
  {
    "COMMENT": "GENERATED VIA SPACETRACK.ORG API",
    "ORIGINATOR": "18 SPCS",
    "NORAD_CAT_ID": "27421",
    "OBJECT_NAME": "SPOT 5",
    "OBJECT_TYPE": "PAYLOAD",
    "CLASSIFICATION_TYPE": "U",
    "INTLDES": "02021A",
    "EPOCH": "2023-07-25 04:35:13",
    "EPOCH_MICROSECONDS": "651008",
    "MEAN_MOTION": "14.52696868",
    "ECCENTRICITY": "0.0132898",
    "INCLINATION": "98.1374",
    "RA_OF_ASC_NODE": "268.0791",
    "ARG_OF_PERICENTER": "316.8896",
    "MEAN_ANOMALY": "42.1952",
    "EPHEMERIS_TYPE": "0",
    "ELEMENT_SET_NO": "999",
    "REV_AT_EPOCH": "10912",
    "BSTAR": "0.000086736",
    "MEAN_MOTION_DOT": "0.00000347",
    "MEAN_MOTION_DDOT": "0",
    "FILE": "3963759",
    "TLE_LINE0": "0 SPOT 5",
    "TLE_LINE1": "1 27421U 02021A   23206.19113022  .00000347  00000-0  86736-4 0  9991",
    "TLE_LINE2": "2 27421  98.1374 268.0791 0132898 316.8896  42.1952 14.52696868109126",
    "OBJECT_ID": "2002-021A",
    "OBJECT_NUMBER": "27421",
    "SEMIMAJOR_AXIS": "7094.991",
    "PERIOD": "99.126",
    "APOGEE": "811.147",
    "PERIGEE": "622.565",
    "DECAYED": "0"
  },
  {
    "COMMENT": "GENERATED VIA SPACETRACK.ORG API",
    "ORIGINATOR": "18 SPCS",
    "NORAD_CAT_ID": "27421",
    "OBJECT_NAME": "SPOT 5",
    "OBJECT_TYPE": "PAYLOAD",
    "CLASSIFICATION_TYPE": "U",
    "INTLDES": "02021A",
    "EPOCH": "2023-07-26 03:43:47",
    "EPOCH_MICROSECONDS": "713440",
    "MEAN_MOTION": "14.5269788",
    "ECCENTRICITY": "0.0132855",
    "INCLINATION": "98.1373",
    "RA_OF_ASC_NODE": "269.0151",
    "ARG_OF_PERICENTER": "313.8921",
    "MEAN_ANOMALY": "45.1364",
    "EPHEMERIS_TYPE": "0",
    "ELEMENT_SET_NO": "999",
    "REV_AT_EPOCH": "10926",
    "BSTAR": "0.000094893",
    "MEAN_MOTION_DOT": "0.00000385",
    "MEAN_MOTION_DDOT": "0",
    "FILE": "3963761",
    "TLE_LINE0": "0 SPOT 5",
    "TLE_LINE1": "1 27421U 02021A   23207.15541335  .00000385  00000-0  94893-4 0  9995",
    "TLE_LINE2": "2 27421  98.1373 269.0151 0132855 313.8921  45.1364 14.52697880109265",
    "OBJECT_ID": "2002-021A",
    "OBJECT_NUMBER": "27421",
    "SEMIMAJOR_AXIS": "7094.988",
    "PERIOD": "99.126",
    "APOGEE": "811.113",
    "PERIGEE": "622.592",
    "DECAYED": "0"
  },
  {
    "COMMENT": "GENERATED VIA SPACETRACK.ORG API",
    "ORIGINATOR": "18 SPCS",
    "NORAD_CAT_ID": "27421",
    "OBJECT_NAME": "SPOT 5",
    "OBJECT_TYPE": "PAYLOAD",
    "CLASSIFICATION_TYPE": "U",
    "INTLDES": "02021A",
    "EPOCH": "2023-07-26 03:43:47",
    "EPOCH_MICROSECONDS": "713440",
    "MEAN_MOTION": "14.5269788",
    "ECCENTRICITY": "0.0132855",
    "INCLINATION": "98.1373",
    "RA_OF_ASC_NODE": "269.0151",
    "ARG_OF_PERICENTER": "313.8921",
    "MEAN_ANOMALY": "45.1364",
    "EPHEMERIS_TYPE": "0",
    "ELEMENT_SET_NO": "999",
    "REV_AT_EPOCH": "10929",
    "BSTAR": "0.000094893",
    "MEAN_MOTION_DOT": "0.00000385",
    "MEAN_MOTION_DDOT": "0",
    "FILE": "3963889",
    "TLE_LINE0": "0 SPOT 5",
    "TLE_LINE1": "1 27421U 02021A   23207.15541335  .00000385  00000-0  94893-4 0  9995",
    "TLE_LINE2": "2 27421  98.1373 269.0151 0132855 313.8921  45.1364 14.52697880109298",
    "OBJECT_ID": "2002-021A",
    "OBJECT_NUMBER": "27421",
    "SEMIMAJOR_AXIS": "7094.988",
    "PERIOD": "99.126",
    "APOGEE": "811.113",
    "PERIGEE": "622.592",
    "DECAYED": "0"
  },
  {
    "COMMENT": "GENERATED VIA SPACETRACK.ORG API",
    "ORIGINATOR": "18 SPCS",
    "NORAD_CAT_ID": "27421",
    "OBJECT_NAME": "SPOT 5",
    "OBJECT_TYPE": "PAYLOAD",
    "CLASSIFICATION_TYPE": "U",
    "INTLDES": "02021A",
    "EPOCH": "2023-07-26 18:36:26",
    "EPOCH_MICROSECONDS": "750304",
    "MEAN_MOTION": "14.52698345",
    "ECCENTRICITY": "0.0132825",
    "INCLINATION": "98.1373",
    "RA_OF_ASC_NODE": "269.6168",
    "ARG_OF_PERICENTER": "311.9656",
    "MEAN_ANOMALY": "47.0283",
    "EPHEMERIS_TYPE": "0",
    "ELEMENT_SET_NO": "999",
    "REV_AT_EPOCH": "10935",
    "BSTAR": "0.000091866",
    "MEAN_MOTION_DOT": "0.00000371",
    "MEAN_MOTION_DDOT": "0",
    "FILE": "3963989",
    "TLE_LINE0": "0 SPOT 5",
    "TLE_LINE1": "1 27421U 02021A   23207.77530961  .00000371  00000-0  91866-4 0  9998",
    "TLE_LINE2": "2 27421  98.1373 269.6168 0132825 311.9656  47.0283 14.52698345109358",
    "OBJECT_ID": "2002-021A",
    "OBJECT_NUMBER": "27421",
    "SEMIMAJOR_AXIS": "7094.986",
    "PERIOD": "99.126",
    "APOGEE": "811.090",
    "PERIGEE": "622.612",
    "DECAYED": "0"
  },
  {
    "COMMENT": "GENERATED VIA SPACETRACK.ORG API",
    "ORIGINATOR": "18 SPCS",
    "NORAD_CAT_ID": "27421",
    "OBJECT_NAME": "SPOT 5",
    "OBJECT_TYPE": "PAYLOAD",
    "CLASSIFICATION_TYPE": "U",
    "INTLDES": "02021A",
    "EPOCH": "2023-07-27 02:52:21",
    "EPOCH_MICROSECONDS": "775008",
    "MEAN_MOTION": "14.52698591",
    "ECCENTRICITY": "0.0132795",
    "INCLINATION": "98.1373",
    "RA_OF_ASC_NODE": "269.9511",
    "ARG_OF_PERICENTER": "310.8916",
    "MEAN_ANOMALY": "48.0837",
    "EPHEMERIS_TYPE": "0",
    "ELEMENT_SET_NO": "999",
    "REV_AT_EPOCH": "10943",
    "BSTAR": "0.000090185",
    "MEAN_MOTION_DOT": "0.00000363",
    "MEAN_MOTION_DDOT": "0",
    "FILE": "3964100",
    "TLE_LINE0": "0 SPOT 5",
    "TLE_LINE1": "1 27421U 02021A   23208.11969647  .00000363  00000-0  90185-4 0  9998",
    "TLE_LINE2": "2 27421  98.1373 269.9511 0132795 310.8916  48.0837 14.52698591109434",
    "OBJECT_ID": "2002-021A",
    "OBJECT_NUMBER": "27421",
    "SEMIMAJOR_AXIS": "7094.985",
    "PERIOD": "99.126",
    "APOGEE": "811.068",
    "PERIGEE": "622.632",
    "DECAYED": "0"
  },
  {
    "COMMENT": "GENERATED VIA SPACETRACK.ORG API",
    "ORIGINATOR": "18 SPCS",
    "NORAD_CAT_ID": "27421",
    "OBJECT_NAME": "SPOT 5",
    "OBJECT_TYPE": "PAYLOAD",
    "CLASSIFICATION_TYPE": "U",
    "INTLDES": "02021A",
    "EPOCH": "2023-07-27 04:31:32",
    "EPOCH_MICROSECONDS": "787552",
    "MEAN_MOTION": "14.52698593",
    "ECCENTRICITY": "0.0132792",
    "INCLINATION": "98.1373",
    "RA_OF_ASC_NODE": "270.0179",
    "ARG_OF_PERICENTER": "310.6777",
    "MEAN_ANOMALY": "48.2939",
    "EPHEMERIS_TYPE": "0",
    "ELEMENT_SET_NO": "999",
    "REV_AT_EPOCH": "10944",
    "BSTAR": "0.000088979",
    "MEAN_MOTION_DOT": "0.00000358",
    "MEAN_MOTION_DDOT": "0",
    "FILE": "3964401",
    "TLE_LINE0": "0 SPOT 5",
    "TLE_LINE1": "1 27421U 02021A   23208.18857393  .00000358  00000-0  88979-4 0  9991",
    "TLE_LINE2": "2 27421  98.1373 270.0179 0132792 310.6777  48.2939 14.52698593109445",
    "OBJECT_ID": "2002-021A",
    "OBJECT_NUMBER": "27421",
    "SEMIMAJOR_AXIS": "7094.985",
    "PERIOD": "99.126",
    "APOGEE": "811.066",
    "PERIGEE": "622.635",
    "DECAYED": "0"
  },
  {
    "COMMENT": "GENERATED VIA SPACETRACK.ORG API",
    "ORIGINATOR": "18 SPCS",
    "NORAD_CAT_ID": "27421",
    "OBJECT_NAME": "SPOT 5",
    "OBJECT_TYPE": "PAYLOAD",
    "CLASSIFICATION_TYPE": "U",
    "INTLDES": "02021A",
    "EPOCH": "2023-07-27 04:31:32",
    "EPOCH_MICROSECONDS": "787552",
    "MEAN_MOTION": "14.52698593",
    "ECCENTRICITY": "0.0132792",
    "INCLINATION": "98.1373",
    "RA_OF_ASC_NODE": "270.0179",
    "ARG_OF_PERICENTER": "310.6777",
    "MEAN_ANOMALY": "48.2939",
    "EPHEMERIS_TYPE": "0",
    "ELEMENT_SET_NO": "999",
    "REV_AT_EPOCH": "10941",
    "BSTAR": "0.000088979",
    "MEAN_MOTION_DOT": "0.00000358",
    "MEAN_MOTION_DDOT": "0",
    "FILE": "3964647",
    "TLE_LINE0": "0 SPOT 5",
    "TLE_LINE1": "1 27421U 02021A   23208.18857393  .00000358  00000-0  88979-4 0  9991",
    "TLE_LINE2": "2 27421  98.1373 270.0179 0132792 310.6777  48.2939 14.52698593109412",
    "OBJECT_ID": "2002-021A",
    "OBJECT_NUMBER": "27421",
    "SEMIMAJOR_AXIS": "7094.985",
    "PERIOD": "99.126",
    "APOGEE": "811.066",
    "PERIGEE": "622.635",
    "DECAYED": "0"
  },
  {
    "COMMENT": "GENERATED VIA SPACETRACK.ORG API",
    "ORIGINATOR": "18 SPCS",
    "NORAD_CAT_ID": "27421",
    "OBJECT_NAME": "SPOT 5",
    "OBJECT_TYPE": "PAYLOAD",
    "CLASSIFICATION_TYPE": "U",
    "INTLDES": "02021A",
    "EPOCH": "2023-07-27 16:05:49",
    "EPOCH_MICROSECONDS": "822656",
    "MEAN_MOTION": "14.52698889",
    "ECCENTRICITY": "0.0132754",
    "INCLINATION": "98.1373",
    "RA_OF_ASC_NODE": "270.4859",
    "ARG_OF_PERICENTER": "309.1765",
    "MEAN_ANOMALY": "49.7699",
    "EPHEMERIS_TYPE": "0",
    "ELEMENT_SET_NO": "999",
    "REV_AT_EPOCH": "10951",
    "BSTAR": "0.000084512",
    "MEAN_MOTION_DOT": "0.00000337",
    "MEAN_MOTION_DDOT": "0",
    "FILE": "3964803",
    "TLE_LINE0": "0 SPOT 5",
    "TLE_LINE1": "1 27421U 02021A   23208.67071554  .00000337  00000-0  84512-4 0  9998",
    "TLE_LINE2": "2 27421  98.1373 270.4859 0132754 309.1765  49.7699 14.52698889109517",
    "OBJECT_ID": "2002-021A",
    "OBJECT_NUMBER": "27421",
    "SEMIMAJOR_AXIS": "7094.984",
    "PERIOD": "99.126",
    "APOGEE": "811.038",
    "PERIGEE": "622.661",
    "DECAYED": "0"
  },
  {
    "COMMENT": "GENERATED VIA SPACETRACK.ORG API",
    "ORIGINATOR": "18 SPCS",
    "NORAD_CAT_ID": "27421",
    "OBJECT_NAME": "SPOT 5",
    "OBJECT_TYPE": "PAYLOAD",
    "CLASSIFICATION_TYPE": "U",
    "INTLDES": "02021A",
    "EPOCH": "2023-07-27 21:03:22",
    "EPOCH_MICROSECONDS": "837824",
    "MEAN_MOTION": "14.52699027",
    "ECCENTRICITY": "0.0132747",
    "INCLINATION": "98.1372",
    "RA_OF_ASC_NODE": "270.6866",
    "ARG_OF_PERICENTER": "308.5334",
    "MEAN_ANOMALY": "50.4022",
    "EPHEMERIS_TYPE": "0",
    "ELEMENT_SET_NO": "999",
    "REV_AT_EPOCH": "10951",
    "BSTAR": "0.000084067",
    "MEAN_MOTION_DOT": "0.00000335",
    "MEAN_MOTION_DDOT": "0",
    "FILE": "3964919",
    "TLE_LINE0": "0 SPOT 5",
    "TLE_LINE1": "1 27421U 02021A   23208.87734766  .00000335  00000-0  84067-4 0  9994",
    "TLE_LINE2": "2 27421  98.1372 270.6866 0132747 308.5334  50.4022 14.52699027109517",
    "OBJECT_ID": "2002-021A",
    "OBJECT_NUMBER": "27421",
    "SEMIMAJOR_AXIS": "7094.984",
    "PERIOD": "99.126",
    "APOGEE": "811.033",
    "PERIGEE": "622.665",
    "DECAYED": "0"
  }
]